0 DMSP 5D-3 F18 DEB
1 35954U 09057D   13280.78962895  .00000809  00000-0  44215-3 0  8866
2 35954 098.7941 322.4827 0005586 147.8187 212.3328 14.14782270204838
0 DMSP 5D-3 F18 DEB
1 35954U 09057D   13283.05272583  .00000819  00000-0  44769-3 0  8873
2 35954 098.7941 324.7123 0005574 143.0288 217.1270 14.14788964205150
0 DMSP 5D-3 F18 DEB
1 35954U 09057D   13287.64961462  .00001096  00000-0  59116-3 0  8895
2 35954 098.7930 329.2416 0005575 133.0370 227.1271 14.14797036205809
0 DMSP 5D-3 F18 DEB
1 35954U 09057D   13289.70052407  .00001034  00000-0  55886-3 0  8908
2 35954 098.7926 331.2621 0005533 128.5498 231.6172 14.14804003206094
0 DMSP 5D-3 F18 DEB
1 35954U 09057D   13292.10502622  .00001148  00000-0  61790-3 0  8913
2 35954 098.7923 333.6308 0005465 123.0960 237.0738 14.14807610206430
0 DMSP 5D-3 F18 DEB
1 35954U 09057D   13294.36808048  .00001207  00000-0  64857-3 0  8928
2 35954 098.7923 335.8599 0005447 117.9965 242.1760 14.14813196206756
